STARLINK-1007           
1 44713U 19074A   23296.84223970 -.00000538  00000+0 -17216-4 0  9995
2 44713  53.0535 122.5372 0001402  86.9106 273.2044 15.06395843218110
STARLINK-1008           
1 44714U 19074B   23297.15281531  .00004345  00000+0  31045-3 0  9991
2 44714  53.0533 121.1435 0001317  99.4177 260.6961 15.06397490218169
STARLINK-1009           
1 44715U 19074C   23297.53984082  .00006202  00000+0  43484-3 0  9999
2 44715  53.0535 119.4085 0001414  80.9053 279.2096 15.06404494218213
STARLINK-1010           
1 44716U 19074D   23297.16018988  .00007841  00000+0  54467-3 0  9995
2 44716  53.0531 121.1113 0001456  82.7460 277.3694 15.06400672218149
STARLINK-1011           
1 44717U 19074E   23297.15835310  .00007521  00000+0  52321-3 0  9993
2 44717  53.0525 141.1190 0001525  95.0961 265.0202 15.06404345217880
STARLINK-1012           
1 44718U 19074F   23296.86531673  .00002915  00000+0  21448-3 0  9994
2 44718  53.0534 122.4353 0001611  88.3735 271.7438 15.06402482217946
STARLINK-1013           
1 44719U 19074G   23297.20441904  .00003566  00000+0  25818-3 0  9999
2 44719  53.0542 120.9137 0001422  94.0650 266.0501 15.06397618218166
STARLINK-1014           
1 44720U 19074H   23297.15554728  .00000886  00000+0  78349-4 0  9994
2 44720  53.0536 121.1222 0001417  96.2933 263.8217 15.06401911218162
STARLINK-1015           
1 44721U 19074J   23297.14544325  .00005182  00000+0  36651-3 0  9999
2 44721  53.0529 121.1771 0001253  93.7297 266.3835 15.06400789218152
STARLINK-1017           
1 44723U 19074L   23296.89848425  .00008011  00000+0  55614-3 0  9994
2 44723  53.0532 122.2862 0001168 106.1270 253.9847 15.06396902217959
STARLINK-1019           
1 44724U 19074M   23296.86162892  .00001803  00000+0  13989-3 0  9990
2 44724  53.0533 122.4519 0001379  82.9420 277.1726 15.06397811217947
STARLINK-1020           
1 44725U 19074N   23297.19889377  .00005674  00000+0  39953-3 0  9991
2 44725  53.0542 140.9362 0001435  82.4817 277.6335 15.06394663217883
STARLINK-1021           
1 44726U 19074P   23297.52140600  .00005560  00000+0  39182-3 0  9996
2 44726  53.0529 119.4889 0001139  81.1768 278.9350 15.06402387218218
STARLINK-1024           
1 44729U 19074S   23296.51180760  .00040296  00000+0  55588-3 0  9991
2 44729  53.0166  41.2526 0004488 227.2098 132.8536 15.56811580219171
STARLINK-1027           
1 44732U 19074V   23297.18781318 -.00005858  00000+0 -37473-3 0  9995
2 44732  53.0538 140.9885 0001638  69.5965 290.5200 15.06395184217885
STARLINK-1028           
1 44733U 19074W   23297.11962474  .00001415  00000+0  11385-3 0  9990
2 44733  53.0531 121.2899 0001435  85.4635 274.6518 15.06402128218155
STARLINK-1029           
1 44734U 19074X   23297.46612594  .00008606  00000+0  59597-3 0  9990
2 44734  53.0567  39.7357 0002273  85.7910 274.3339 15.06398177219301
STARLINK-1030           
1 44735U 19074Y   23297.19521323  .00011150  00000+0  76607-3 0  9999
2 44735  53.0531 140.9546 0001405  92.1864 267.9286 15.06407349217886
STARLINK-1031           
1 44736U 19074Z   23296.81187638  .00009550  00000+0  65919-3 0  9990
2 44736  53.0542 142.6761 0001221  92.4580 267.6549 15.06397132217833
STARLINK-1032           
1 44737U 19074AA  23297.28735056 -.00003181  00000+0 -19476-3 0  9999
2 44737  53.0529 140.5413 0001372  86.7893 273.3253 15.06403090217905
STARLINK-1035           
1 44740U 19074AD  23297.15097997  .00008848  00000+0  61210-3 0  9990
2 44740  53.0528 141.1538 0001432 104.0261 256.0887 15.06402883217880
STARLINK-1036           
1 44741U 19074AE  23296.89665254  .00008194  00000+0  56832-3 0  9996
2 44741  53.0526 142.2947 0001369  90.0416 270.0730 15.06399516217678
STARLINK-1038           
1 44743U 19074AG  23297.34448924  .00006689  00000+0  46757-3 0  9994
2 44743  53.0531 160.2823 0001066  96.0414 264.0697 15.06396324217632
STARLINK-1039           
1 44744U 19074AH  23297.35553547  .00009357  00000+0  64611-3 0  9998
2 44744  53.0532 160.2339 0001079  65.7152 294.3949 15.06405563217634
STARLINK-1041           
1 44746U 19074AK  23297.34080640  .00009316  00000+0  64339-3 0  9990
2 44746  53.0533 160.3006 0002170  87.3002 272.8235 15.06407233217631
STARLINK-1042           
1 44747U 19074AL  23297.03855742  .00020301  00000+0  13773-2 0  9992
2 44747  53.0536 161.6573 0001544  63.9006 296.2142 15.06415190217599
STARLINK-1043           
1 44748U 19074AM  23297.33341890  .00008806  00000+0  60886-3 0  9994
2 44748  53.0536 160.3344 0001280  77.2828 282.8304 15.06427818217635
STARLINK-1046           
1 44751U 19074AQ  23296.88375373  .00010003  00000+0  68959-3 0  9991
2 44751  53.0519 162.3499 0001706  81.1747 278.9435 15.06395009217390
STARLINK-1047           
1 44752U 19074AR  23297.50114272  .00007009  00000+0  48888-3 0  9992
2 44752  53.0534 139.5811 0001425  94.0605 266.0546 15.06404995217932
STARLINK-1048           
1 44753U 19074AS  23297.24128130  .00011974  00000+0  82146-3 0  9993
2 44753  53.0525 120.7468 0000795  77.9428 282.1650 15.06396734218178
STARLINK-1049           
1 44754U 19074AT  23296.95405735  .01103466  80983-3  87940-3 0  9998
2 44754  53.0282  20.5422 0012830 357.6763   2.4210 16.13811001219544
STARLINK-1052           
1 44757U 19074AW  23297.18683229  .00014022  00000+0  87207-3 0  9995
2 44757  53.0543 140.3658 0002307 161.0251 199.0825 15.09885945217899
STARLINK-1053           
1 44758U 19074AX  23297.32973383  .00005104  00000+0  36127-3 0  9991
2 44758  53.0534 160.4359 0003392  86.4905 273.6472 15.06404817217633
STARLINK-1054           
1 44759U 19074AY  23296.91323553  .00019252  00000+0  13075-2 0  9999
2 44759  53.0537 162.2201 0000912  76.5290 283.5800 15.06408973215040
STARLINK-1055           
1 44760U 19074AZ  23296.88722086  .00006143  00000+0  28407-3 0  9992
2 44760  53.0518 144.0786 0001798 152.1723 207.9369 15.21455415217662
STARLINK-1056           
1 44761U 19074BA  23296.90953067  .00016793  00000+0  11435-2 0  9995
2 44761  53.0537 162.2388 0002183  88.8689 271.2550 15.06401446217405
STARLINK-1057           
1 44762U 19074BB  23297.17677455 -.00001462  00000+0 -79218-4 0  9994
2 44762  53.0528 141.0364 0001762  71.6335 288.4846 15.06406869217889
STARLINK-1058           
1 44763U 19074BC  23297.35907931  .00008611  00000+0  62263-3 0  9992
2 44763  53.0524 160.5251 0001395  63.9653 296.1479 15.04773303217635
STARLINK-1059           
1 44764U 19074BD  23296.95084197  .00011204  00000+0  45259-3 0  9996
2 44764  53.0825 109.4355 0006509 158.2868 201.8406 15.25238580218152
STARLINK-1060           
1 44765U 19074BE  23297.19151628 -.00000719  00000+0 -29372-4 0  9998
2 44765  53.0532 140.9711 0001548  79.8133 280.3030 15.06409022217889
STARLINK-1061           
1 44766U 19074BF  23297.05699014  .00018493  00000+0  12568-2 0  9993
2 44766  53.0533 161.5761 0001664 100.9695 259.1481 15.06410401217598
STARLINK-1062           
1 44767U 19074BG  23297.31405143  .00006573  00000+0  45967-3 0  9997
2 44767  53.0531 160.4097 0001541  89.5630 270.5536 15.06404195217638
STARLINK-1063           
1 44768U 19074BH  23297.33711146  .00007066  00000+0  49254-3 0  9994
2 44768  53.0537 160.3157 0001918  86.1617 273.9591 15.06420699217632
STARLINK-1067           
1 44771U 19074BL  23297.32604350  .00012126  00000+0  83089-3 0  9992
2 44771  53.0540 160.3675 0001069  64.5688 295.5412 15.06428485217633
STARLINK-1068           
1 44772U 19074BM  23297.18414630 -.00001553  00000+0 -85344-4 0  9998
2 44772  53.0533 141.0037 0001443  81.7456 278.3697 15.06405015217889
STARLINK-1073           
1 44914U 20001A   23297.39977048  .00018328  00000+0  12457-2 0  9997
2 44914  53.0548 280.0365 0001798  75.9397 284.1792 15.06413184209128
STARLINK-1084           
1 44915U 20001B   23297.23021361  .00018153  00000+0  12343-2 0  9999
2 44915  53.0533 280.7960 0001556 108.7859 251.3298 15.06404218209104
STARLINK-1098           
1 44917U 20001D   23297.23389980  .00019403  00000+0  13175-2 0  9998
2 44917  53.0544 280.7785 0001760 102.9116 257.2069 15.06410864209107
STARLINK-1099           
1 44918U 20001E   23297.18118416  .00017660  00000+0  11975-2 0  9996
2 44918  53.0541 281.0432 0001681  96.1733 263.9447 15.06524470209832
STARLINK-1102           
1 44920U 20001G   23296.59442378  .00044563  00000+0  18161-2 0  9996
2 44920  53.0475 259.2360 0002646  22.1346 337.9764 15.24048833209354
STARLINK-1103           
1 44921U 20001H   23297.34722061  .00019133  00000+0  12996-2 0  9996
2 44921  53.0539 280.2630 0001627  92.1510 267.9665 15.06408463209090
STARLINK-1104           
1 44922U 20001J   23297.24864884  .00018398  00000+0  12503-2 0  9992
2 44922  53.0547 280.7134 0001608  84.9733 275.1439 15.06415315209105
STARLINK-1106           
1 44923U 20001K   23297.18019688  .00012115  00000+0  56080-3 0  9990
2 44923  53.0511 265.4096 0001942 132.0541 228.0620 15.20522306209314
STARLINK-1111           
1 44924U 20001L   23297.39608804  .00010099  00000+0  69582-3 0  9998
2 44924  53.0536 280.0735 0001250  90.8456 269.2676 15.06404991209123
STARLINK-1112           
1 44925U 20001M   23297.34448460  .00018619  00000+0  12654-2 0  9997
2 44925  53.0540 280.2863 0001763  88.7101 271.4090 15.06405064209111
STARLINK-1113           
1 44926U 20001N   23297.20811147  .00017879  00000+0  12161-2 0  9999
2 44926  53.0537 280.9842 0001632  83.9870 276.1305 15.06400442209775
STARLINK-1114           
1 44927U 20001P   23297.35553707  .00015386  00000+0  10491-2 0  9996
2 44927  53.0542 280.2333 0001495  87.8423 272.2737 15.06416351209125
STARLINK-1119           
1 44928U 20001Q   23296.91667824  .01398667  00000+0  64778-1 0  9997
2 44928  53.0525 282.0624 0001410 110.4748 122.3740 15.16658952  5804
STARLINK-1121           
1 44929U 20001R   23296.91667824  .01423525  00000+0  74668-1 0  9999
2 44929  53.0533 282.1585 0001361  99.6810 162.3306 15.12160433  5804
STARLINK-1123           
